[{"OBJECT_NAME":"STARLINK-35724","OBJECT_ID":"2025-247Q","EPOCH":"2026-03-09T15:33:46.221696","MEAN_MOTION":15.30175525,"ECCENTRICITY":0.00011363,"INCLINATION":53.1588,"RA_OF_ASC_NODE":191.9012,"ARG_OF_PERICENTER":87.934,"MEAN_ANOMALY":272.1791,"EPHEMERIS_TYPE":0,"CLASSIFICATION_TYPE":"U","NORAD_CAT_ID":66279,"ELEMENT_SET_NO":999,"REV_AT_EPOCH":2102,"BSTAR":0.00016971077,"MEAN_MOTION_DOT":4.667e-5,"MEAN_MOTION_DDOT":0},{"OBJECT_NAME":"FENGYUN 1C DEB","OBJECT_ID":"1999-025BRA","EPOCH":"2026-03-07T21:38:03.570144","MEAN_MOTION":15.14550758,"ECCENTRICITY":0.01045185,"INCLINATION":98.8762,"RA_OF_ASC_NODE":52.6466,"ARG_OF_PERICENTER":91.2586,"MEAN_ANOMALY":270.0618,"EPHEMERIS_TYPE":0,"CLASSIFICATION_TYPE":"U","NORAD_CAT_ID":31346,"ELEMENT_SET_NO":999,"REV_AT_EPOCH":773,"BSTAR":0.0014203897,"MEAN_MOTION_DOT":0.00030047,"MEAN_MOTION_DDOT":0}]
